CUTE-1 (CO-55)          
1 27844U 03031E   26131.01616769  .00000204  00000+0  10731-3 0  9991
2 27844  98.6748 140.0418 0008392 297.0013  63.0309 14.24312209186386
CUBESAT XI-IV (CO-57)   
1 27848U 03031J   26131.75915339  .00000161  00000+0  89832-4 0  9992
2 27848  98.6780 140.5174 0008530 315.4592  44.5900 14.23600757186198
CUBESAT XI-V            
1 28895U 05043F   26131.91413184  .00000812  00000+0  13597-3 0  9996
2 28895  98.2945 286.7851 0013206 324.8432  35.1902 14.72533697 96413
CUTE-1.7+APD II (CO-65) 
1 32785U 08021C   26131.91692702  .00002685  00000+0  17346-3 0  9999
2 32785  97.8260 112.5963 0009974 143.1813 217.0102 15.09100600979725
CANX-2                  
1 32790U 08021H   26131.93148775  .00002059  00000+0  14813-3 0  9994
2 32790  97.8627 111.0180 0011053 156.7073 203.4656 15.05355737979353
SEEDS II (CO-66)        
1 32791U 08021J   26131.88709054  .00011599  00000+0  38377-3 0  9992
2 32791  97.7527 128.0909 0005042  86.6235 273.5582 15.31494947981738
SWISSCUBE               
1 35932U 09051B   26131.70124110  .00000610  00000+0  13029-3 0  9990
2 35932  98.4058  38.9523 0006299 338.0405  22.0525 14.62408901883827
BEESAT-1                
1 35933U 09051C   26131.48647191  .00000510  00000+0  11231-3 0  9997
2 35933  98.3987  38.4455 0005156 356.8811   3.2357 14.61658653883821
ITUPSAT1                
1 35935U 09051E   26130.69163038  .00000508  00000+0  11516-3 0  9997
2 35935  98.4072  36.8697 0007623   5.6146 354.5137 14.60382828883263
TISAT 1                 
1 36799U 10035E   26131.38463647  .00013280  00000+0  45560-3 0  9993
2 36799  98.0690  74.7177 0003666  55.9928 304.1659 15.30302000862075
AEROCUBE 4.5A           
1 38767U 12048K   26131.68892916  .00114867  00000+0  67162-3 0  9999
2 38767  64.6293 158.3602 0019410 217.0923 142.8891 15.77523696366871
STRAND-1                
1 39090U 13009E   26131.50430227  .00000179  00000+0  74739-4 0  9990
2 39090  98.3917 312.6434 0008294 349.0918  11.0088 14.37141086691795
BRITE-AUSTRIA           
1 39091U 13009F   26131.43178424  .00000110  00000+0  51969-4 0  9996
2 39091  98.3988 311.7791 0010037 357.0743   3.0383 14.36527080691771
NEE-01 PEGASO           
1 39151U 13018B   26131.88726024  .00001820  00000+0  17871-3 0  9999
2 39151  98.1175 274.8535 0011183 285.1037  74.8945 14.93480823705287
POPACS 2                
1 39269U 13055E   26131.59604559  .00009204  00000+0  15800-3 0  9990
2 39269  80.9931 186.0535 0419365 311.5041  45.0875 14.90383682657766
POPACS 3                
1 39270U 13055F   26131.82581569  .00011370  00000+0  27190-3 0  9995
2 39270  81.0002 268.5836 0554945 180.5703 179.4942 14.55222954633263
ZACUBE-1 (TSHEPISOSAT)  
1 39417U 13066B   26131.87676368  .00002959  00000+0  23309-3 0  9998
2 39417  97.8119  94.0169 0042031  15.3524 344.8964 15.00902822675285
WNISAT-1                
1 39423U 13066H   26131.90783371  .00000287  00000+0  61363-4 0  9997
2 39423  97.7158 283.6487 0162771 346.6812  13.0116 14.58016999661447
TRITON-1                
1 39427U 13066M   26131.89455308  .00001710  00000+0  20994-3 0  9991
2 39427  97.8261  42.5281 0090283 353.7230   6.2844 14.81543088668711
GOMX-1                  
1 39430U 13066Q   26131.82175186  .00001438  00000+0  22247-3 0  9991
2 39430  97.6514 334.5777 0128331 193.6826 166.0892 14.69315553664574
CUBEBUG-2 (LO-74)       
1 39440U 13066AA  26131.81980019  .00002024  00000+0  19168-3 0  9990
2 39440  97.8889  80.6587 0058788 146.5112 213.9847 14.93487885671567
NEE-02 KRYSAOR          
1 39441U 13066AB  26131.79351087  .00000959  00000+0  11069-3 0  9992
2 39441  97.8880  71.2763 0065958 187.7640 172.2561 14.86480801670798
FUNCUBE-1 (AO-73)       
1 39444U 13066AE  26131.92302287  .00005488  00000+0  34630-3 0  9999
2 39444  97.8258 102.6300 0035535 329.9578  29.9611 15.09013099674193
UWE-3                   
1 39446U 13066AG  26131.85056797  .00001943  00000+0  17105-3 0  9995
2 39446  97.8679  87.6953 0050950  80.9232 279.7749 14.96716038672145
BRITE-CA1 (TORONTO)     
1 40020U 14033L   26131.89086002  .00000448  00000+0  74963-4 0  9991
2 40020  97.9686 261.5000 0079365  34.0265 326.5996 14.72626340636872
DUCHIFAT-1              
1 40021U 14033M   26131.41895469  .00055146  00000+0  72925-3 0  9995
2 40021  98.0508 185.6247 0005703 190.8241 169.2891 15.58150241650012
NANOSATC-BR1            
1 40024U 14033Q   26131.53536653  .00009937  00000+0  34204-3 0  9993
2 40024  98.0758 160.7076 0002025 334.6480  25.4659 15.30286186648372
QB50P1                  
1 40025U 14033R   26131.76256983  .00005598  00000+0  28136-3 0  9990
2 40025  98.0984 140.3709 0008491   3.0086 357.1195 15.17687185647506
QB50P2                  
1 40032U 14033Y   26131.90356424  .00003920  00000+0  21578-3 0  9995
2 40032  98.0757 126.5412 0005903 307.5702  52.4991 15.14687566647173
PERSEUS-M2              
1 40037U 14033AD  26131.93139544  .00001125  00000+0  10721-3 0  9998
2 40037  97.9936  81.7421 0013131  62.9242 297.3316 14.95393618645360
